OBJECT_NAME,OBJECT_ID,EPOCH,MEAN_MOTION,ECCENTRICITY,INCLINATION,RA_OF_ASC_NODE,ARG_OF_PERICENTER,MEAN_ANOMALY,EPHEMERIS_TYPE,CLASSIFICATION_TYPE,NORAD_CAT_ID,ELEMENT_SET_NO,REV_AT_EPOCH,BSTAR,MEAN_MOTION_DOT,MEAN_MOTION_DDOT
STARLINK-11571 [DTC],2025-031F,2026-05-25T00:44:59.527392,15.70912554,.0001139,42.9992,260.8768,299.2805,60.7948,0,U,62986,999,7475,.18469E-2,.244381E-2,0
STARLINK-11539 [DTC],2025-031G,2026-05-24T14:42:17.684352,15.70848094,.00010097,43.0002,263.7707,237.9837,122.0933,0,U,62987,999,7468,.11201799E-2,.145883E-2,0
STARLINK-11542 [DTC],2025-031H,2026-05-25T01:00:17.506656,15.70881271,.0000838,42.9998,260.9594,50.8140,309.2802,0,U,62988,999,7472,.13134E-2,.171901E-2,0
STARLINK-11573 [DTC],2025-031J,2026-05-25T04:00:03.998880,15.70872272,.0001751,43.0003,260.6562,263.5170,263.0953,0,U,62989,999,597,-.82994E-3,-.105745E-2,0
STARLINK-11572 [DTC],2025-031K,2026-05-24T17:31:25.668480,15.70923580,.00038362,43.0032,262.9266,262.7138,97.3293,0,U,62990,999,7470,.11916386E-2,.15594E-2,0
STARLINK-11583 [DTC],2025-031L,2026-05-25T00:22:13.724832,15.70907333,.0003388,42.9969,261.6416,282.0407,78.0081,0,U,62991,999,7475,.12883E-2,.168761E-2,0
STARLINK-11570 [DTC],2025-031M,2026-05-25T00:29:53.905920,15.70879169,.0001674,43.0014,261.6845,37.4107,322.6877,0,U,62992,999,7473,.1222E-2,.159667E-2,0
STARLINK-11576 [DTC],2025-031N,2026-05-24T18:00:42.494976,15.70830824,.00012616,43.0009,263.0901,267.9315,92.1408,0,U,62993,999,7469,.117979E-2,.153705E-2,0
STARLINK-32899,2025-031P,2026-05-25T03:29:03.520032,15.27601236,.0001307,42.9984,71.9408,264.7102,95.3601,0,U,62994,999,7278,.66637E-3,.18132E-3,0
STARLINK-32819,2025-031Q,2026-05-25T04:15:06.199776,15.27588933,.0001546,43.0030,71.3207,275.0170,85.0505,0,U,62995,999,7279,.4181E-3,.11264E-3,0
STARLINK-32703,2025-031R,2026-05-25T03:21:39.411072,15.27591448,.000114,43.0009,71.9035,267.9102,92.1619,0,U,62996,999,7278,.58858E-3,.15975E-3,0
STARLINK-32881,2025-031S,2026-05-25T04:00:18.899424,15.27612437,.0001312,43.0028,71.2390,266.1274,93.9428,0,U,62997,999,7279,.90927E-3,.24868E-3,0
STARLINK-32898,2025-031T,2026-05-25T04:46:35.501664,15.27562300,.0001163,42.9981,71.4824,209.6908,150.3878,0,U,62998,999,7279,.72902E-3,.19842E-3,0
STARLINK-32658,2025-031U,2026-05-24T20:15:04.028832,15.27595423,.0000584,43.0031,73.1163,289.9441,70.1348,0,U,62999,999,7274,.59330624E-3,.16108E-3,0
STARLINK-32673,2025-031V,2026-05-25T04:31:45.071904,15.27594824,.0001652,43.0041,71.4031,265.3166,94.7497,0,U,63000,999,7279,.68169E-3,.18552E-3,0
STARLINK-32437,2025-031W,2026-05-25T02:00:27.082656,15.27589926,.0000787,42.9985,72.3406,257.0401,103.0363,0,U,63001,999,7277,.54837E-3,.14863E-3,0
FOSSASAT-2E20 (TAT-O),2025-009DN,2026-05-25T03:02:02.784768,15.29046882,.0004182,97.3173,221.3662,72.9671,287.2027,0,U,63003,999,13298,.46065E-3,.12929E-3,0
STARLINK-11448 [DTC],2025-032A,2026-05-25T03:41:04.869312,15.70968367,.0001774,43.0007,94.0794,247.2326,112.8354,0,U,63005,999,7425,.12984E-2,.170535E-2,0
STARLINK-11553 [DTC],2025-032B,2026-05-25T04:00:03.998880,15.70863754,.0001495,43.0002,94.7501,268.9948,225.1044,0,U,63006,999,597,-.61722E-3,-.78977E-3,0
STARLINK-11526 [DTC],2025-032C,2026-05-25T05:04:59.748960,15.70849053,.0001608,42.9998,93.6535,263.1575,96.9110,0,U,63007,999,7425,.14625E-2,.191674E-2,0
STARLINK-11405 [DTC],2025-032D,2026-05-25T03:11:59.807040,15.70863976,.0001895,43.0023,94.8104,263.2275,96.8377,0,U,63008,999,7408,.12004E-2,.15668E-2,0
STARLINK-11586 [DTC],2025-032E,2026-05-24T23:44:37.827744,15.70867826,.0002062,43.0004,95.4404,269.2818,90.7813,0,U,63009,999,7421,.12431E-2,.162404E-2,0
STARLINK-11574 [DTC],2025-032F,2026-05-24T23:59:55.311072,15.70843892,.0001958,42.9999,95.5257,273.5269,86.5375,0,U,63010,999,7421,.11557E-2,.150583E-2,0
STARLINK-11580 [DTC],2025-032G,2026-05-24T21:50:08.090304,15.70913079,.0001213,42.9985,95.6949,229.6361,130.4401,0,U,63011,999,7405,.1589E-2,.209303E-2,0
STARLINK-11449 [DTC],2025-032H,2026-05-24T23:36:58.870080,15.70831606,.0001609,42.9997,95.3980,262.8498,97.2186,0,U,63012,999,7421,.16193E-2,.212653E-2,0
STARLINK-11577 [DTC],2025-032J,2026-05-24T23:52:16.319712,15.70867358,.000195,43.0005,95.4812,271.3522,88.7122,0,U,63013,999,7421,.111E-2,.144647E-2,0
STARLINK-11578 [DTC],2025-032K,2026-05-25T03:18:19.726848,15.70869654,.0001584,43.0031,94.8433,235.9644,124.1073,0,U,63014,999,7418,.13802E-2,.180779E-2,0
STARLINK-11541 [DTC],2025-032L,2026-05-25T03:48:43.432128,15.70887323,.000162,43.0004,94.1173,261.7401,98.3283,0,U,63015,999,7425,.88706E-3,.115193E-2,0
STARLINK-11545 [DTC],2025-032M,2026-05-24T23:29:19.998816,15.70833969,.0001813,42.9978,95.3456,231.6594,128.4111,0,U,63016,999,7422,.15711E-2,.206167E-2,0
STARLINK-11400 [DTC],2025-032N,2026-05-25T03:10:40.904832,15.70862538,.0001073,42.9988,94.7986,218.6909,141.3881,0,U,63017,999,7423,.10169E-2,.132248E-2,0
STARLINK-32870,2025-032P,2026-05-25T00:35:55.539168,15.27586513,.0001423,42.9992,265.0174,33.4659,326.6283,0,U,63018,999,7229,.10069E-2,.27553E-3,0
STARLINK-32872,2025-032Q,2026-05-25T01:07:23.533824,15.27567428,.0001771,43.0010,265.1933,278.0964,81.9686,0,U,63019,999,7229,.47583E-3,.1285E-3,0
STARLINK-32677,2025-032R,2026-05-25T00:41:27.997728,15.27584834,.0001088,42.9999,265.0499,273.0977,86.9750,0,U,63020,999,7228,.10109E-2,.27664E-3,0
STARLINK-32929,2025-032S,2026-05-25T00:47:01.434336,15.27574410,.0001148,43.0012,265.0810,284.4969,75.5755,0,U,63021,999,7229,.57853E-3,.15689E-3,0
STARLINK-32944,2025-032T,2026-05-24T17:22:08.239008,15.27598561,.00011897,43.0024,267.0692,273.7068,86.3647,0,U,63022,999,7224,.31271837E-3,.8358E-4,0
STARLINK-32943,2025-032U,2026-05-24T17:53:23.161344,15.27606940,.00011787,42.9993,266.3693,288.9983,71.0741,0,U,63023,999,7225,.85392066E-3,.2333E-3,0
STARLINK-32803,2025-032V,2026-05-24T17:47:49.896672,15.27588543,.0001573,43.0001,266.3329,275.4371,84.6301,0,U,63024,999,7209,.28680963E-3,.7641E-4,0
STARLINK-32926,2025-032W,2026-05-24T17:38:37.061952,15.27542094,.00014252,42.9997,266.2810,282.6061,77.4632,0,U,63025,999,7225,.87124915E-3,.23762E-3,0
GLOBAL-31,2025-033B,2026-05-25T02:49:16.530816,15.38942201,.0014291,59.0000,49.3978,54.6532,305.5878,0,U,63027,999,7077,.34588E-3,.13185E-3,0
STARLINK-32798,2025-034A,2026-05-24T21:02:33.188064,15.30208025,.0001119,53.1588,276.8711,89.2281,270.8848,0,U,63029,999,7057,.39079E-3,.11235E-3,0
STARLINK-32779,2025-034B,2026-05-25T01:32:43.118016,15.30207413,.0001159,53.1590,276.6167,101.4700,258.6431,0,U,63030,999,7059,.40996E-3,.11805E-3,0
STARLINK-32716,2025-034C,2026-05-25T01:24:46.370592,15.34403194,.0001201,53.1610,263.0862,79.1227,280.9911,0,U,63031,999,7078,.6933E-3,.23123E-3,0
STARLINK-32776,2025-034D,2026-05-24T18:09:07.413120,15.34404316,.00009089,53.1584,264.7548,92.2749,267.8358,0,U,63032,999,7073,.84287875E-3,.28213E-3,0
STARLINK-32772,2025-034E,2026-05-24T18:04:17.331168,15.30193949,.00010345,53.1582,264.7384,73.2175,286.8939,0,U,63033,999,7073,.84995949E-3,.24894E-3,0
STARLINK-32830,2025-034F,2026-05-25T01:30:31.391712,15.31713604,.0001218,53.1597,263.1119,100.8854,259.2285,0,U,63034,999,7078,.45565E-3,.13806E-3,0
STARLINK-32801,2025-034G,2026-05-24T17:47:53.112480,15.34358983,.00009363,53.1591,264.6654,112.9881,247.1220,0,U,63035,999,7072,.83162244E-3,.27789E-3,0
STARLINK-32818,2025-034H,2026-05-25T00:40:15.305952,15.30208072,.0000959,53.1551,263.6079,85.8847,274.2263,0,U,63036,999,7077,.60239E-3,.17529E-3,0
STARLINK-32810,2025-034J,2026-05-25T00:49:44.744160,15.33357900,.0001637,53.1582,263.6487,86.2250,273.8939,0,U,63037,999,7077,.10241E-1,.35052E-2,0
STARLINK-32812,2025-034K,2026-05-25T03:54:24.624000,15.30421520,.0007546,53.1581,263.0202,153.7919,206.3465,0,U,63038,999,7079,.91467E-2,.283139E-2,0
STARLINK-32811,2025-034L,2026-05-25T04:00:03.998880,15.30175120,.0001118,53.1580,263.0297,97.6268,272.3384,0,U,63039,999,586,.23261E-2,.69123E-3,0
STARLINK-32832,2025-034M,2026-05-25T01:23:48.136128,15.31716861,.0000892,53.1583,263.0867,67.6255,292.4841,0,U,63040,999,7078,.43589E-3,.13192E-3,0
STARLINK-32820,2025-034N,2026-05-25T00:38:44.084832,15.30214692,.0001152,53.1584,263.5951,70.9840,289.1285,0,U,63041,999,7077,.66093E-3,.19275E-3,0
STARLINK-32795,2025-034P,2026-05-25T01:32:34.232640,15.33564172,.000091,53.1602,263.1168,115.0536,245.0561,0,U,63042,999,7078,.12794E-2,.41958E-3,0
STARLINK-32827,2025-034Q,2026-05-24T18:51:38.672064,15.34401750,.00005383,53.1594,277.0160,93.0185,267.0879,0,U,63043,999,7056,.41780497E-3,.13767E-3,0
STARLINK-32735,2025-034R,2026-05-24T16:50:35.015424,15.34410900,.00010924,53.1601,277.2013,80.5783,279.5343,0,U,63044,999,7055,.83121005E-3,.27821E-3,0
STARLINK-32828,2025-034S,2026-05-25T02:12:03.877920,15.30206314,.0001202,53.1591,276.0745,58.7241,301.3877,0,U,63045,999,7060,.59378E-3,.17271E-3,0
STARLINK-32738,2025-034T,2026-05-25T01:30:14.332032,15.30210961,.0001131,53.1594,263.1068,83.2751,276.8379,0,U,63046,999,7078,.6395E-3,.18635E-3,0
STARLINK-32590,2025-034U,2026-05-25T00:41:46.436352,15.30214280,.0001333,53.1596,263.6117,86.1062,274.0091,0,U,63047,999,7076,.59E-3,.17163E-3,0
STARLINK-32790,2025-034V,2026-05-25T04:00:03.998880,15.34236567,.0001554,53.1589,263.1295,16.8722,300.2514,0,U,63048,999,565,.32984E-2,.11216E-2,0
STARLINK-32829,2025-034W,2026-05-24T15:41:00.630528,15.34378215,.00012216,53.1595,277.6071,89.7414,270.3729,0,U,63049,999,7054,.13845296E-3,.4301E-4,0
STARLINK-32816,2025-034X,2026-05-24T20:19:22.872000,15.34405382,.0000629,53.1579,276.6784,85.2962,274.8113,0,U,63050,999,7057,.87042E-3,.29152E-3,0
STARLINK-32835,2025-034Y,2026-05-25T02:16:23.358720,15.34400055,.0001006,53.1599,275.3898,86.4366,273.6752,0,U,63051,999,7061,.10281E-2,.34521E-3,0
STARLINK-11550 [DTC],2025-035A,2026-05-25T01:19:58.555776,15.70879999,.0001587,43.0000,274.8195,40.5277,319.5708,0,U,63052,999,7323,.1254E-2,.163945E-2,0
STARLINK-11563 [DTC],2025-035B,2026-05-25T01:27:37.586016,15.70888869,.0002296,42.9997,274.8615,51.0927,309.0145,0,U,63053,999,7312,.15801E-2,.207886E-2,0
